NORAD_CAT_ID,OBJECT_NAME,OBJECT_TYPE,EPOCH,MEAN_MOTION,ECCENTRICITY,INCLINATION,RA_OF_ASC_NODE,ARG_OF_PERICENTER,MEAN_ANOMALY,BSTAR,MEAN_MOTION_DOT,MEAN_MOTION_DDOT,TLE_LINE0,TLE_LINE1,TLE_LINE2,SEMIMAJOR_AXIS,PERIOD,APOGEE,PERIGEE,DECAYED
52835.0,STARLINK-4080,PAYLOAD,2023-02-13 15:18:31,15.08838293,0.0001729,53.2171,22.2348,83.089,277.0299,0.0011977,0.00018824,0.0,0 STARLINK-4080,1 52835U 22062F   23044.63785991  .00018824  00000-0  11977-2 0  9996,2 52835  53.2171  22.2348 0001729  83.0890 277.0299 15.08838293 36699,6917.886,95.438,540.947,538.555,0.0
52835.0,STARLINK-4080,PAYLOAD,2023-02-14 10:23:08,15.08858092,0.0001777,53.2166,18.6657,82.9211,277.1983,0.0013355,0.00021041,0.0,0 STARLINK-4080,1 52835U 22062F   23045.43273904  .00021041  00000-0  13355-2 0  9998,2 52835  53.2166  18.6657 0001777  82.9211 277.1983 15.08858092 36817,6917.825,95.436,540.919,538.461,0.0
52835.0,STARLINK-4080,PAYLOAD,2023-02-14 15:09:19,15.0885765,0.0002158,53.2165,17.7752,76.4473,283.6759,0.00010322,1.356e-05,0.0,0 STARLINK-4080,1 52835U 22062F   23045.63147063  .00001356  00000-0  10322-3 0  9995,2 52835  53.2165  17.7752 0002158  76.4473 283.6759 15.08857650 36849,6917.826,95.436,541.184,538.199,0.0
52835.0,STARLINK-4080,PAYLOAD,2023-02-15 10:13:55,15.0887734,0.000107,53.2156,14.2056,76.6805,283.4306,0.0027882,0.00044411,0.0,0 STARLINK-4080,1 52835U 22062F   23046.42633593  .00044411  00000-0  27882-2 0  9998,2 52835  53.2156  14.2056 0001070  76.6805 283.4306 15.08877340 36968,6917.766,95.435,540.371,538.891,0.0
52835.0,STARLINK-4080,PAYLOAD,2023-02-15 21:21:37,15.08849431,7.74e-05,53.2172,12.1228,123.7892,236.3174,0.00064397,9.978e-05,0.0,0 STARLINK-4080,1 52835U 22062F   23046.89001557  .00009978  00000-0  64397-3 0  9990,2 52835  53.2172  12.1228 0000774 123.7892 236.3174 15.08849431 37033,6917.852,95.437,540.252,539.181,0.0
52835.0,STARLINK-4080,PAYLOAD,2023-02-16 05:18:32,15.08899193,9.61e-05,53.2159,10.6372,98.9106,261.1995,0.003716,0.00059447,0.0,0 STARLINK-4080,1 52835U 22062F   23047.22120774  .00059447  00000-0  37160-2 0  9994,2 52835  53.2159  10.6372 0000961  98.9106 261.1995 15.08899193 37082,6917.699,95.434,540.229,538.9,0.0
52835.0,STARLINK-4080,PAYLOAD,2023-02-16 14:50:51,15.08849145,0.0001914,53.2161,8.853,64.6906,295.4284,0.0037041,0.00059173,0.0,0 STARLINK-4080,1 52835U 22062F   23047.61865368  .00059173  00000-0  37041-2 0  9996,2 52835  53.2161   8.8530 0001914  64.6906 295.4284 15.08849145 37147,6917.852,95.437,541.042,538.393,0.0
52835.0,STARLINK-4080,PAYLOAD,2023-02-17 03:33:57,15.08821092,0.0001497,53.2161,6.4736,75.871,284.2448,0.0024913,0.00039563,0.0,0 STARLINK-4080,1 52835U 22062F   23048.14858503  .00039563  00000-0  24913-2 0  9993,2 52835  53.2161   6.4736 0001497  75.8710 284.2448 15.08821092 37220,6917.938,95.439,540.839,538.768,0.0
52835.0,STARLINK-4080,PAYLOAD,2023-02-17 14:41:40,15.08828164,0.0001896,53.2159,4.3925,76.4898,283.6305,0.0020026,0.00031717,0.0,0 STARLINK-4080,1 52835U 22062F   23048.61227402  .00031717  00000-0  20026-2 0  9997,2 52835  53.2159   4.3925 0001896  76.4898 283.6305 15.08828164 37290,6917.917,95.438,541.093,538.47,0.0
52835.0,STARLINK-4080,PAYLOAD,2023-02-18 01:49:22,15.0882185,0.0001693,53.2161,2.3112,95.2055,264.913,0.00066613,0.00010324,0.0,0 STARLINK-4080,1 52835U 22062F   23049.07596052  .00010324  00000-0  66613-3 0  9992,2 52835  53.2161   2.3112 0001693  95.2055 264.9130 15.08821850 37369,6917.936,95.439,540.972,538.63,0.0
52835.0,STARLINK-4080,PAYLOAD,2023-02-18 06:35:32,15.08828379,0.0001839,53.2165,1.4145,111.5212,248.5976,0.00072712,0.00011299,0.0,0 STARLINK-4080,1 52835U 22062F   23049.27468069  .00011299  00000-0  72712-3 0  9999,2 52835  53.2165   1.4145 0001839 111.5212 248.5976 15.08828379 37390,6917.916,95.438,541.053,538.509,0.0
52835.0,STARLINK-4080,PAYLOAD,2023-02-19 03:15:32,15.08869484,0.0001575,53.2159,357.5529,88.5692,271.548,0.0011653,0.00018321,0.0,0 STARLINK-4080,1 52835U 22062F   23050.13579197  .00018321  00000-0  11653-2 0  9990,2 52835  53.2159 357.5529 0001575  88.5692 271.5480 15.08869484 37529,6917.79,95.436,540.745,538.566,0.0
52835.0,STARLINK-4080,PAYLOAD,2023-02-19 12:47:51,15.08846731,0.0002629,53.2174,355.7675,94.7768,265.3524,0.00042939,6.553e-05,0.0,0 STARLINK-4080,1 52835U 22062F   23050.53323109  .00006553  00000-0  42939-3 0  9990,2 52835  53.2174 355.7675 0002629  94.7768 265.3524 15.08846731 37588,6917.86,95.437,541.544,537.906,0.0
52835.0,STARLINK-4080,PAYLOAD,2023-02-20 03:06:18,15.08868822,0.0001394,53.2178,353.0943,105.5486,254.566,0.00011512,1.546e-05,0.0,0 STARLINK-4080,1 52835U 22062F   23051.12937945  .00001546  00000-0  11512-3 0  9995,2 52835  53.2178 353.0943 0001394 105.5486 254.5660 15.08868822 37673,6917.792,95.436,540.622,538.693,0.0
52835.0,STARLINK-4080,PAYLOAD,2023-02-20 12:38:37,15.08856273,0.000116,53.2167,351.3071,93.4416,266.6709,0.00065977,0.00010233,0.0,0 STARLINK-4080,1 52835U 22062F   23051.52682210  .00010233  00000-0  65977-3 0  9998,2 52835  53.2167 351.3071 0001160  93.4416 266.6709 15.08856273 37735,6917.831,95.437,540.498,538.893,0.0
52835.0,STARLINK-4080,PAYLOAD,2023-02-20 23:46:19,15.08840508,0.0001064,53.217,349.2273,117.457,242.653,0.00093659,0.00014649,0.0,0 STARLINK-4080,1 52835U 22062F   23051.99050462  .00014649  00000-0  93659-3 0  9990,2 52835  53.2170 349.2273 0001064 117.4570 242.6530 15.08840508 37808,6917.879,95.438,540.48,539.008,0.0
52835.0,STARLINK-4080,PAYLOAD,2023-02-21 12:29:24,15.08858774,7.51e-05,53.216,346.847,101.5368,258.5708,0.0014297,0.00022551,0.0,0 STARLINK-4080,1 52835U 22062F   23052.52042217  .00022551  00000-0  14297-2 0  9990,2 52835  53.2160 346.8470 0000751 101.5368 258.5708 15.08858774 37885,6917.823,95.436,540.208,539.168,0.0
52835.0,STARLINK-4080,PAYLOAD,2023-02-22 02:47:52,15.08853099,0.0001006,53.216,344.1734,105.225,254.8853,0.0018285,0.00028943,0.0,0 STARLINK-4080,1 52835U 22062F   23053.11658380  .00028943  00000-0  18285-2 0  9992,2 52835  53.2160 344.1734 0001006 105.2250 254.8853 15.08853099 37979,6917.84,95.437,540.401,539.009,0.0
52835.0,STARLINK-4080,PAYLOAD,2023-02-22 04:23:15,15.08857657,0.0001125,53.2161,343.8761,102.5221,257.5897,0.001671,0.00026419,0.0,0 STARLINK-4080,1 52835U 22062F   23053.18282265  .00026419  00000-0  16710-2 0  9991,2 52835  53.2161 343.8761 0001125 102.5221 257.5897 15.08857657 37989,6917.826,95.436,540.47,538.913,0.0
52835.0,STARLINK-4080,PAYLOAD,2023-02-22 18:41:45,15.08820641,0.0001167,53.2155,341.1975,111.2999,248.8118,0.00087241,0.00013616,0.0,0 STARLINK-4080,1 52835U 22062F   23053.77899419  .00013616  00000-0  87241-3 0  9994,2 52835  53.2155 341.1975 0001167 111.2999 248.8118 15.08820641 38078,6917.94,95.439,540.612,538.997,0.0
52835.0,STARLINK-4080,PAYLOAD,2023-02-23 02:38:41,15.08825913,0.0001198,53.216,339.7114,94.4418,265.6711,0.00051857,7.972e-05,0.0,0 STARLINK-4080,1 52835U 22062F   23054.11019859  .00007972  00000-0  51857-3 0  9997,2 52835  53.2160 339.7114 0001198  94.4418 265.6711 15.08825913 38123,6917.923,95.438,540.617,538.96,0.0
52835.0,STARLINK-4080,PAYLOAD,2023-02-23 18:32:32,15.08853005,0.0001188,53.2158,336.7374,84.9191,275.1937,0.0011485,0.00018044,0.0,0 STARLINK-4080,1 52835U 22062F   23054.77259778  .00018044  00000-0  11485-2 0  9999,2 52835  53.2158 336.7374 0001188  84.9191 275.1937 15.08853005 38226,6917.841,95.437,540.527,538.884,0.0
52835.0,STARLINK-4080,PAYLOAD,2023-02-24 00:54:04,15.08874639,0.000119,53.2155,335.5496,80.5694,279.5432,0.001546,0.00024426,0.0,0 STARLINK-4080,1 52835U 22062F   23055.03755167  .00024426  00000-0  15460-2 0  9990,2 52835  53.2155 335.5496 0001190  80.5694 279.5432 15.08874639 38266,6917.775,95.435,540.463,538.816,0.0
52835.0,STARLINK-4080,PAYLOAD,2023-02-24 04:04:50,15.08889451,0.0001289,53.215,334.9535,84.4996,275.6143,0.001816,0.00028771,0.0,0 STARLINK-4080,1 52835U 22062F   23055.17002624  .00028771  00000-0  18160-2 0  9995,2 52835  53.2150 334.9535 0001289  84.4996 275.6143 15.08889451 38281,6917.729,95.434,540.486,538.703,0.0
52835.0,STARLINK-4080,PAYLOAD,2023-02-25 00:44:51,15.08850743,0.0001098,53.2156,331.0891,90.8897,269.2221,0.0012163,0.00019128,0.0,0 STARLINK-4080,1 52835U 22062F   23056.03114781  .00019128  00000-0  12163-2 0  9992,2 52835  53.2156 331.0891 0001098  90.8897 269.2221 15.08850743 38412,6917.848,95.437,540.472,538.953,0.0
52835.0,STARLINK-4080,PAYLOAD,2023-02-25 21:24:52,15.08842467,0.0001457,53.2149,327.2204,108.5575,251.5575,0.00095816,0.00014995,0.0,0 STARLINK-4080,1 52835U 22062F   23056.89227244  .00014995  00000-0  95816-3 0  9999,2 52835  53.2149 327.2204 0001457 108.5575 251.5575 15.08842467 38542,6917.873,95.437,540.746,538.73,0.0
52835.0,STARLINK-4080,PAYLOAD,2023-02-26 03:46:24,15.08851485,0.0001184,53.2152,326.0315,86.7296,273.3831,0.0017376,0.00027483,0.0,0 STARLINK-4080,1 52835U 22062F   23057.15723275  .00027483  00000-0  17376-2 0  9994,2 52835  53.2152 326.0315 0001184  86.7296 273.3831 15.08851485 38581,6917.845,95.437,540.529,538.891,0.0
52835.0,STARLINK-4080,PAYLOAD,2023-02-26 18:04:52,15.08858666,0.0001235,53.2151,323.3534,88.1074,272.006,0.00075825,0.00011806,0.0,0 STARLINK-4080,1 52835U 22062F   23057.75338730  .00011806  00000-0  75825-3 0  9994,2 52835  53.2151 323.3534 0001235  88.1074 272.0060 15.08858666 38678,6917.823,95.436,540.543,538.834,0.0
52835.0,STARLINK-4080,PAYLOAD,2023-02-27 02:01:47,15.08873568,0.0001309,53.2152,321.8678,95.7313,264.3829,0.0010473,0.00016434,0.0,0 STARLINK-4080,1 52835U 22062F   23058.08458020  .00016434  00000-0  10473-2 0  9995,2 52835  53.2152 321.8678 0001309  95.7313 264.3829 15.08873568 38724,6917.778,95.435,540.548,538.737,0.0
52835.0,STARLINK-4080,PAYLOAD,2023-02-27 17:55:38,15.08888679,0.0001406,53.2152,318.8928,90.4514,269.6639,0.0016896,0.0002674,0.0,0 STARLINK-4080,1 52835U 22062F   23058.74697430  .00026740  00000-0  16896-2 0  9994,2 52835  53.2152 318.8928 0001406  90.4514 269.6639 15.08888679 38828,6917.732,95.434,540.569,538.624,0.0
